[{"OBJECT_NAME":"ONEWEB-0156","OBJECT_ID":"2021-025L","EPOCH":"2026-01-28T20:46:20.027712","MEAN_MOTION":13.13469176,"ECCENTRICITY":0.00018733,"INCLINATION":87.9025,"RA_OF_ASC_NODE":347.9001,"ARG_OF_PERICENTER":84.7136,"MEAN_ANOMALY":275.4207,"EPHEMERIS_TYPE":0,"CLASSIFICATION_TYPE":"U","NORAD_CAT_ID":48052,"ELEMENT_SET_NO":999,"REV_AT_EPOCH":23528,"BSTAR":0.00089005829,"MEAN_MOTION_DOT":3.38e-6,"MEAN_MOTION_DDOT":0},{"OBJECT_NAME":"ONEWEB-0161","OBJECT_ID":"2021-025M","EPOCH":"2026-01-28T21:59:28.521312","MEAN_MOTION":13.13470334,"ECCENTRICITY":0.00018781,"INCLINATION":87.9019,"RA_OF_ASC_NODE":347.9025,"ARG_OF_PERICENTER":87.9492,"MEAN_ANOMALY":272.1852,"EPHEMERIS_TYPE":0,"CLASSIFICATION_TYPE":"U","NORAD_CAT_ID":48053,"ELEMENT_SET_NO":999,"REV_AT_EPOCH":23522,"BSTAR":-0.00052318428,"MEAN_MOTION_DOT":-1.78e-6,"MEAN_MOTION_DDOT":0},{"OBJECT_NAME":"ONEWEB-0158","OBJECT_ID":"2021-025N","EPOCH":"2026-01-28T21:00:58.896288","MEAN_MOTION":13.13470696,"ECCENTRICITY":0.00015515,"INCLINATION":87.9026,"RA_OF_ASC_NODE":347.8981,"ARG_OF_PERICENTER":70.7934,"MEAN_ANOMALY":289.3363,"EPHEMERIS_TYPE":0,"CLASSIFICATION_TYPE":"U","NORAD_CAT_ID":48054,"ELEMENT_SET_NO":999,"REV_AT_EPOCH":23534,"BSTAR":0.00087823503,"MEAN_MOTION_DOT":3.33e-6,"MEAN_MOTION_DDOT":0},{"OBJECT_NAME":"ONEWEB-0157","OBJECT_ID":"2021-025P","EPOCH":"2026-01-28T21:37:32.050560","MEAN_MOTION":13.13471323,"ECCENTRICITY":0.00018469,"INCLINATION":87.9023,"RA_OF_ASC_NODE":347.8985,"ARG_OF_PERICENTER":93.939,"MEAN_ANOMALY":266.1951,"EPHEMERIS_TYPE":0,"CLASSIFICATION_TYPE":"U","NORAD_CAT_ID":48055,"ELEMENT_SET_NO":999,"REV_AT_EPOCH":23528,"BSTAR":-0.00068428878,"MEAN_MOTION_DOT":-2.37e-6,"MEAN_MOTION_DDOT":0},{"OBJECT_NAME":"ONEWEB-0162","OBJECT_ID":"2021-025Q","EPOCH":"2026-01-28T22:52:54.749280","MEAN_MOTION":13.13468806,"ECCENTRICITY":0.00019417,"INCLINATION":87.9028,"RA_OF_ASC_NODE":347.8912,"ARG_OF_PERICENTER":81.6945,"MEAN_ANOMALY":278.4404,"EPHEMERIS_TYPE":0,"CLASSIFICATION_TYPE":"U","NORAD_CAT_ID":48056,"ELEMENT_SET_NO":999,"REV_AT_EPOCH":23526,"BSTAR":0.00089183872,"MEAN_MOTION_DOT":3.38e-6,"MEAN_MOTION_DDOT":0},{"OBJECT_NAME":"ONEWEB-0155","OBJECT_ID":"2021-025R","EPOCH":"2026-01-28T21:13:08.790528","MEAN_MOTION":13.13468496,"ECCENTRICITY":0.00016697,"INCLINATION":87.9018,"RA_OF_ASC_NODE":347.9076,"ARG_OF_PERICENTER":85.3916,"MEAN_ANOMALY":274.7404,"EPHEMERIS_TYPE":0,"CLASSIFICATION_TYPE":"U","NORAD_CAT_ID":48057,"ELEMENT_SET_NO":999,"REV_AT_EPOCH":23539,"BSTAR":0.00050655332,"MEAN_MOTION_DOT":1.98e-6,"MEAN_MOTION_DDOT":0},{"OBJECT_NAME":"ONEWEB-0149","OBJECT_ID":"2021-025S","EPOCH":"2026-01-28T21:44:51.221760","MEAN_MOTION":13.13470786,"ECCENTRICITY":0.00019754,"INCLINATION":87.9023,"RA_OF_ASC_NODE":347.8976,"ARG_OF_PERICENTER":81.2272,"MEAN_ANOMALY":278.908,"EPHEMERIS_TYPE":0,"CLASSIFICATION_TYPE":"U","NORAD_CAT_ID":48058,"ELEMENT_SET_NO":999,"REV_AT_EPOCH":23520,"BSTAR":-0.00077227296,"MEAN_MOTION_DOT":-2.69e-6,"MEAN_MOTION_DDOT":0},{"OBJECT_NAME":"ONEWEB-0148","OBJECT_ID":"2021-025T","EPOCH":"2026-01-28T20:51:14.022720","MEAN_MOTION":13.13470855,"ECCENTRICITY":0.00023803,"INCLINATION":87.9017,"RA_OF_ASC_NODE":347.9218,"ARG_OF_PERICENTER":85.4696,"MEAN_ANOMALY":274.6705,"EPHEMERIS_TYPE":0,"CLASSIFICATION_TYPE":"U","NORAD_CAT_ID":48059,"ELEMENT_SET_NO":999,"REV_AT_EPOCH":23532,"BSTAR":0.00088317878,"MEAN_MOTION_DOT":3.35e-6,"MEAN_MOTION_DDOT":0},{"OBJECT_NAME":"ONEWEB-0160","OBJECT_ID":"2021-025U","EPOCH":"2026-01-28T21:15:35.930592","MEAN_MOTION":13.13469937,"ECCENTRICITY":0.00017358,"INCLINATION":87.9016,"RA_OF_ASC_NODE":347.9156,"ARG_OF_PERICENTER":55.1316,"MEAN_ANOMALY":304.9976,"EPHEMERIS_TYPE":0,"CLASSIFICATION_TYPE":"U","NORAD_CAT_ID":48060,"ELEMENT_SET_NO":999,"REV_AT_EPOCH":23527,"BSTAR":0.00014122173,"MEAN_MOTION_DOT":6.4e-7,"MEAN_MOTION_DDOT":0},{"OBJECT_NAME":"ONEWEB-0163","OBJECT_ID":"2021-025V","EPOCH":"2026-01-28T20:53:39.364800","MEAN_MOTION":13.13469163,"ECCENTRICITY":0.00017848,"INCLINATION":87.9027,"RA_OF_ASC_NODE":347.9083,"ARG_OF_PERICENTER":92.4284,"MEAN_ANOMALY":267.705,"EPHEMERIS_TYPE":0,"CLASSIFICATION_TYPE":"U","NORAD_CAT_ID":48061,"ELEMENT_SET_NO":999,"REV_AT_EPOCH":23539,"BSTAR":0.00092927489,"MEAN_MOTION_DOT":3.52e-6,"MEAN_MOTION_DDOT":0},{"OBJECT_NAME":"ONEWEB-0159","OBJECT_ID":"2021-025W","EPOCH":"2026-01-28T20:41:28.982400","MEAN_MOTION":13.13470867,"ECCENTRICITY":0.00019359,"INCLINATION":87.9027,"RA_OF_ASC_NODE":347.8948,"ARG_OF_PERICENTER":87.5095,"MEAN_ANOMALY":272.6256,"EPHEMERIS_TYPE":0,"CLASSIFICATION_TYPE":"U","NORAD_CAT_ID":48062,"ELEMENT_SET_NO":999,"REV_AT_EPOCH":23531,"BSTAR":0.00082007896,"MEAN_MOTION_DOT":3.12e-6,"MEAN_MOTION_DDOT":0},{"OBJECT_NAME":"ONEWEB-0164","OBJECT_ID":"2021-025X","EPOCH":"2026-01-28T22:04:19.591680","MEAN_MOTION":13.13469125,"ECCENTRICITY":0.00016878,"INCLINATION":87.9029,"RA_OF_ASC_NODE":347.8895,"ARG_OF_PERICENTER":83.142,"MEAN_ANOMALY":276.9901,"EPHEMERIS_TYPE":0,"CLASSIFICATION_TYPE":"U","NORAD_CAT_ID":48063,"ELEMENT_SET_NO":999,"REV_AT_EPOCH":23530,"BSTAR":-0.00046445985,"MEAN_MOTION_DOT":-1.57e-6,"MEAN_MOTION_DDOT":0},{"OBJECT_NAME":"ONEWEB-0167","OBJECT_ID":"2021-025Y","EPOCH":"2026-01-28T20:54:51.907968","MEAN_MOTION":13.13472232,"ECCENTRICITY":0.00013249,"INCLINATION":87.9016,"RA_OF_ASC_NODE":347.9227,"ARG_OF_PERICENTER":102.9896,"MEAN_ANOMALY":257.1382,"EPHEMERIS_TYPE":0,"CLASSIFICATION_TYPE":"U","NORAD_CAT_ID":48064,"ELEMENT_SET_NO":999,"REV_AT_EPOCH":23528,"BSTAR":0.00096960752,"MEAN_MOTION_DOT":3.67e-6,"MEAN_MOTION_DDOT":0},{"OBJECT_NAME":"ONEWEB-0166","OBJECT_ID":"2021-025Z","EPOCH":"2026-01-28T21:27:47.176992","MEAN_MOTION":13.13470244,"ECCENTRICITY":0.00019228,"INCLINATION":87.9024,"RA_OF_ASC_NODE":347.8783,"ARG_OF_PERICENTER":83.4488,"MEAN_ANOMALY":276.686,"EPHEMERIS_TYPE":0,"CLASSIFICATION_TYPE":"U","NORAD_CAT_ID":48065,"ELEMENT_SET_NO":999,"REV_AT_EPOCH":23536,"BSTAR":-0.00045522994,"MEAN_MOTION_DOT":-1.53e-6,"MEAN_MOTION_DDOT":0},{"OBJECT_NAME":"ONEWEB-0151","OBJECT_ID":"2021-025AA","EPOCH":"2026-01-28T21:30:13.412448","MEAN_MOTION":13.13469576,"ECCENTRICITY":0.00016305,"INCLINATION":87.9025,"RA_OF_ASC_NODE":347.9049,"ARG_OF_PERICENTER":83.5565,"MEAN_ANOMALY":276.575,"EPHEMERIS_TYPE":0,"CLASSIFICATION_TYPE":"U","NORAD_CAT_ID":48066,"ELEMENT_SET_NO":999,"REV_AT_EPOCH":23530,"BSTAR":-0.00039436879,"MEAN_MOTION_DOT":-1.31e-6,"MEAN_MOTION_DDOT":0},{"OBJECT_NAME":"ONEWEB-0170","OBJECT_ID":"2021-025AB","EPOCH":"2026-01-28T21:42:24.168096","MEAN_MOTION":13.13470372,"ECCENTRICITY":0.00013734,"INCLINATION":87.9021,"RA_OF_ASC_NODE":347.9054,"ARG_OF_PERICENTER":72.9795,"MEAN_ANOMALY":287.1485,"EPHEMERIS_TYPE":0,"CLASSIFICATION_TYPE":"U","NORAD_CAT_ID":48067,"ELEMENT_SET_NO":999,"REV_AT_EPOCH":23526,"BSTAR":-0.00068259189,"MEAN_MOTION_DOT":-2.37e-6,"MEAN_MOTION_DDOT":0}]
