ONEWEB-0156             
1 48052U 21025L   26028.86550958  .00000338  00000+0  89006-3 0  9992
2 48052  87.9025 347.9001 0001873  84.7136 275.4207 13.13469176235282
ONEWEB-0161             
1 48053U 21025M   26028.91630233 -.00000178  00000+0 -52318-3 0  9994
2 48053  87.9019 347.9025 0001878  87.9492 272.1852 13.13470334235229
ONEWEB-0158             
1 48054U 21025N   26028.87568167  .00000333  00000+0  87824-3 0  9997
2 48054  87.9026 347.8981 0001551  70.7934 289.3363 13.13470696235348
ONEWEB-0157             
1 48055U 21025P   26028.90106540 -.00000237  00000+0 -68429-3 0  9990
2 48055  87.9023 347.8985 0001846  93.9390 266.1951 13.13471323235287
ONEWEB-0162             
1 48056U 21025Q   26028.95341145  .00000338  00000+0  89184-3 0  9999
2 48056  87.9028 347.8912 0001941  81.6945 278.4404 13.13468806235268
ONEWEB-0155             
1 48057U 21025R   26028.88412952  .00000198  00000+0  50655-3 0  9992
2 48057  87.9018 347.9076 0001669  85.3916 274.7404 13.13468496235394
ONEWEB-0149             
1 48058U 21025S   26028.90614840 -.00000269  00000+0 -77227-3 0  9991
2 48058  87.9023 347.8976 0001975  81.2272 278.9080 13.13470786235200
ONEWEB-0148             
1 48059U 21025T   26028.86891230  .00000335  00000+0  88318-3 0  9992
2 48059  87.9017 347.9218 0002380  85.4696 274.6705 13.13470855235328
ONEWEB-0160             
1 48060U 21025U   26028.88583253  .00000064  00000+0  14122-3 0  9990
2 48060  87.9016 347.9156 0001735  55.1316 304.9976 13.13469937235276
ONEWEB-0163             
1 48061U 21025V   26028.87059450  .00000352  00000+0  92927-3 0  9996
2 48061  87.9027 347.9083 0001784  92.4284 267.7050 13.13469163235393
ONEWEB-0159             
1 48062U 21025W   26028.86214100  .00000312  00000+0  82008-3 0  9996
2 48062  87.9027 347.8948 0001935  87.5095 272.6256 13.13470867235314
ONEWEB-0164             
1 48063U 21025X   26028.91967120 -.00000157  00000+0 -46446-3 0  9995
2 48063  87.9029 347.8895 0001687  83.1420 276.9901 13.13469125235304
ONEWEB-0167             
1 48064U 21025Y   26028.87143412  .00000367  00000+0  96961-3 0  9999
2 48064  87.9016 347.9227 0001324 102.9896 257.1382 13.13472232235280
ONEWEB-0166             
1 48065U 21025Z   26028.89429603 -.00000153  00000+0 -45523-3 0  9994
2 48065  87.9024 347.8783 0001922  83.4488 276.6860 13.13470244235367
ONEWEB-0151             
1 48066U 21025AA  26028.89598857 -.00000131  00000+0 -39437-3 0  9996
2 48066  87.9025 347.9049 0001630  83.5565 276.5750 13.13469576235305
ONEWEB-0170             
1 48067U 21025AB  26028.90444639 -.00000237  00000+0 -68259-3 0  9998
2 48067  87.9021 347.9054 0001373  72.9795 287.1485 13.13470372235263
